STARLINK-1591           
1 46045U 20055U   21357.52635141  .00003161  00000+0  23101-3 0  9996
2 46045  53.0520 187.2157 0002738  84.2751 275.8550 15.06407457 77188
STARLINK-1514           
1 46046U 20055V   21357.54674482  .00033306  00000+0  45517-3 0  9999
2 46046  53.0549 147.5702 0002299 347.5293  12.5661 15.57163881 77739
STARLINK-1524           
1 46047U 20055W   21357.28030707 -.00006837  00000+0 -44011-3 0  9996
2 46047  53.0541 178.3306 0002666  86.7317 273.3977 15.06428942 77307
STARLINK-1527           
1 46048U 20055X   21357.47566948  .00000994  00000+0  85641-4 0  9990
2 46048  53.0544 177.4356 0002433  88.8219 271.3049 15.06392535 77319
STARLINK-1530           
1 46049U 20055Y   21357.00756622 -.00000754  00000+0 -31706-4 0  9999
2 46049  53.0536 179.5479 0002361  81.9776 278.1481 15.06386733 77275
STARLINK-1535           
1 46050U 20055Z   21357.43103593  .00343257  55285-4  10632-2 0  9990
2 46050  53.0517 144.9396 0004010 287.1385  72.9201 15.91182367 77797
STARLINK-1540           
1 46051U 20055AA  21357.50884629  .00001150  00000+0  96105-4 0  9999
2 46051  53.0531 177.2950 0002714  89.2762 270.8537 15.06395134 77355
STARLINK-1541           
1 46052U 20055AB  21357.49411207 -.00000416  00000+0 -89889-5 0  9994
2 46052  53.0524 177.3557 0002421  92.4973 267.6294 15.06392142 77313
STARLINK-1543           
1 46053U 20055AC  21357.49778416  .00000522  00000+0  53988-4 0  9999
2 46053  53.0522 177.3352 0002302  89.1098 271.0155 15.06396562 77342
STARLINK-1548           
1 46054U 20055AD  21356.97438918  .00001536  00000+0  12200-3 0  9999
2 46054  53.0540 179.6842 0002553  83.1773 276.9507 15.06400053 77261
STARLINK-1554           
1 46055U 20055AE  21357.49041252  .00000920  00000+0  80655-4 0  9995
2 46055  53.0541 177.3828 0002523  88.2141 271.9137 15.06397829 77343
STARLINK-1561           
1 46056U 20055AF  21356.98175913  .00002451  00000+0  18341-3 0  9994
2 46056  53.0526 179.6555 0002639  87.3855 272.7436 15.06398812 77275
STARLINK-1564           
1 46058U 20055AH  21357.52359531 -.00000596  00000+0 -21074-4 0  9995
2 46058  53.0536 177.2151 0002531  92.1789 267.9490 15.06397465 77342
STARLINK-1570           
1 46059U 20055AJ  21357.46463821  .00002822  00000+0  20827-3 0  9993
2 46059  53.0514 177.4863 0002676  87.5204 272.6091 15.06405007 77297
STARLINK-1572           
1 46060U 20055AK  21357.52727492  .00002583  00000+0  19229-3 0  9997
2 46060  53.0527 177.2059 0002584  86.5488 273.5796 15.06397656 77314
STARLINK-1573           
1 46061U 20055AL  21357.51991045 -.00000511  00000+0 -15404-4 0  9997
2 46061  53.0550 177.2264 0002442  93.3932 266.7336 15.06394751 77342
STARLINK-1574           
1 46062U 20055AM  21357.55308341 -.00000163  00000+0  79654-5 0  9993
2 46062  53.0544 177.1026 0002471  89.5645 270.5627 15.06393775 77319
STARLINK-1577           
1 46063U 20055AN  21357.48305643 -.00000357  00000+0 -50529-5 0  9994
2 46063  53.0539 177.4105 0002531  93.2726 266.8552 15.06391017 77338
STARLINK-1583           
1 46064U 20055AP  21356.98544615  .00000928  00000+0  81222-4 0  9998
2 46064  53.0551 179.6290 0002415  83.5916 276.5348 15.06389951 77263
STARLINK-1515           
1 46065U 20055AQ  21357.44339588  .00000219  00000+0  33643-4 0  9999
2 46065  53.0499 157.5991 0002211  93.7321 266.3921 15.06400411 77590
STARLINK-1525           
1 46066U 20055AR  21357.51436268  .00002296  00000+0  17297-3 0  9994
2 46066  53.0532 157.2694 0002216  91.6890 268.4353 15.06410724 77612
STARLINK-1529           
1 46067U 20055AS  21357.45170796  .00001448  00000+0  11608-3 0  9997
2 46067  53.0529 157.5520 0002078  89.5311 270.5916 15.06400404 77613
STARLINK-1532           
1 46068U 20055AT  21357.59546209  .00000534  00000+0  54802-4 0  9998
2 46068  53.0544 156.8936 0002336  90.9658 269.1598 15.06396380 77630
STARLINK-1533           
1 46069U 20055AU  21357.54385577  .00001126  00000+0  94501-4 0  9991
2 46069  53.0522 157.1304 0002345  93.3731 266.7526 15.06408357 77631
STARLINK-1536           
1 46070U 20055AV  21357.42591306 -.00000033  00000+0  16698-4 0  9997
2 46070  53.0530 157.6582 0002299  89.9422 270.1830 15.06402311 77610
STARLINK-1538           
1 46071U 20055AW  21357.44434305 -.00000204  00000+0  51961-5 0  9998
2 46071  53.0525 157.5852 0002141  93.3283 266.7951 15.06398536 77612
STARLINK-1539           
1 46072U 20055AX  21357.46919709 -.00001847  00000+0 -10511-3 0  9996
2 46072  53.0557 157.4563 0002227  86.8062 273.3182 15.06400593 77609
STARLINK-1542           
1 46073U 20055AY  21357.55123624  .00000760  00000+0  69935-4 0  9996
2 46073  53.0527 157.1102 0002379  89.1997 270.9264 15.06404772 77623
STARLINK-1549           
1 46074U 20055AZ  21357.53648269  .00002165  00000+0  16416-3 0  9998
2 46074  53.0534 157.1668 0002276  86.5250 273.6000 15.06411172 77617
STARLINK-1551           
1 46075U 20055BA  21357.42959093  .00001608  00000+0  12685-3 0  9992
2 46075  53.0518 157.6537 0002247  93.4950 266.6296 15.06404788 77605
STARLINK-1552           
1 46076U 20055BB  21357.38904325  .00001905  00000+0  14672-3 0  9994
2 46076  53.0534 157.8367 0002464  87.0246 273.1025 15.06409444 77589
STARLINK-1559           
1 46077U 20055BC  21357.50332045 -.00000477  00000+0 -13115-4 0  9990
2 46077  53.0529 157.3104 0002239  89.9470 270.1776 15.06392830 77577
STARLINK-1563           
1 46078U 20055BD  21357.54755106  .00001209  00000+0  10005-3 0  9998
2 46078  53.0541 157.1256 0002253  90.7723 269.3524 15.06398209 77594
STARLINK-1566           
1 46079U 20055BE  21357.54016803  .00000826  00000+0  74370-4 0  9993
2 46079  53.0533 157.1519 0002390  94.0417 266.0845 15.06411033 77622
STARLINK-1568           
1 46080U 20055BF  21357.49963691 -.00000070  00000+0  14251-4 0  9999
2 46080  53.0524 157.3377 0002271  88.9151 271.2099 15.06404392 77598
STARLINK-1571           
1 46081U 20055BG  21357.59914087  .00002096  00000+0  15952-3 0  9993
2 46081  53.0522 156.8864 0002165  91.0036 269.1201 15.06409521 77625
STARLINK-1578           
1 46082U 20055BH  21357.48857436 -.00000276  00000+0  40541-6 0  9990
2 46082  53.0530 157.3791 0002196  90.6470 269.4770 15.06404503 77619
STARLINK-1579           
1 46083U 20055BJ  21357.59178548 -.00001232  00000+0 -63843-4 0  9995
2 46083  53.0533 156.9151 0002228  94.3308 265.7936 15.06388420 77628
GLOBAL-7                
1 46088U 20055BP  21357.51288259  .00001202  00000+0  22701-4 0  9996
2 46088  53.0062  10.3541 0000696  68.5656 291.5428 15.57475951 82971
GLOBAL-8                
1 46089U 20055BQ  21357.52917694  .00025553  00000+0  36010-3 0  9992
2 46089  53.0054  12.6385 0005599 207.8265 152.2446 15.56467893 82940
BSAT-4B                 
1 46112U 20056A   21357.51021781 -.00000332  00000+0  00000+0 0  9997
2 46112   0.0728 117.4830 0001263  78.3225 189.9881  1.00271652  4974
MEV-2                   
1 46113U 20056B   21357.39804932  .00000007  00000+0  00000+0 0  9999
2 46113   0.0204  13.5789 0001141 272.9374 307.9440  1.00267929 64134
GALAXY 30 (G-30)        
1 46114U 20056C   21357.60885887  .00000055  00000+0  00000+0 0  9995
2 46114   0.0179   2.1345 0002080 272.8051 271.5938  1.00270090  4889
STARLINK-1585           
1 46117U 20057A   21357.49225355  .00003729  00000+0  26914-3 0  9991
2 46117  53.0536 357.3784 0001804  57.7140 302.4023 15.06396998 74659
STARLINK-1588           
1 46118U 20057B   21357.50147644 -.00000899  00000+0 -41471-4 0  9991
2 46118  53.0547  17.3296 0001483  61.7521 298.3618 15.06388753 75658
STARLINK-1593           
1 46119U 20057C   21357.42405794  .00000449  00000+0  49075-4 0  9993
2 46119  53.0563  17.6810 0001493  63.8308 296.2834 15.06396913 75620
STARLINK-1601           
1 46120U 20057D   21357.47566346  .00000658  00000+0  63046-4 0  9997
2 46120  53.0555  17.4429 0001544  60.1030 300.0112 15.06395789 75652
STARLINK-1602           
1 46121U 20057E   21357.51068560 -.00000635  00000+0 -23727-4 0  9997
2 46121  53.0560 357.2890 0001940  52.8021 307.3145 15.06393097 74659
STARLINK-1604           
1 46122U 20057F   21357.32085952 -.00001296  00000+0 -68134-4 0  9996
2 46122  53.0550 338.1308 0001830  48.8825 311.2321 15.06393028 76168
STARLINK-1605           
1 46123U 20057G   21357.37246006 -.00001181  00000+0 -60413-4 0  9996
2 46123  53.0554 337.9055 0001847  54.7909 305.3253 15.06395427 76192
STARLINK-1614           
1 46124U 20057H   21357.51252878 -.00000796  00000+0 -34527-4 0  9995
2 46124  53.0563 337.2840 0001853  48.2236 311.8911 15.06390743 74946
STARLINK-1618           
1 46125U 20057J   21357.49408782  .00000543  00000+0  55312-4 0  9993
2 46125  53.0545  17.3475 0001418  62.2737 297.8396 15.06401893 75632
STARLINK-1619           
1 46126U 20057K   21357.46829616  .00000631  00000+0  61301-4 0  9997
2 46126  53.0684  17.4209 0001982  43.7421 316.3725 15.06395052 74375
STARLINK-1621           
1 46127U 20057L   21357.52542983  .00000941  00000+0  82091-4 0  9997
2 46127  53.0544 357.2202 0001819  57.9432 302.1733 15.06391685 74658
STARLINK-1622           
1 46128U 20057M   21357.42037586 -.00001823  00000+0 -10352-3 0  9997
2 46128  53.0561 337.6980 0001923  51.8040 308.3122 15.06393553 74923
STARLINK-1623           
1 46129U 20057N   21357.46092112  .00001721  00000+0  13445-3 0  9999
2 46129  53.0556 337.5148 0001661  59.7920 300.3233 15.06396600 74938
STARLINK-1624           
1 46130U 20057P   21357.36141300  .00010961  00000+0  75369-3 0  9993
2 46130  53.0546 337.9530 0001667  59.2365 300.8788 15.06394388 76160
STARLINK-1625           
1 46131U 20057Q   21357.50699719  .00010902  00000+0  74956-3 0  9998
2 46131  53.0554 357.3088 0001635  56.1316 303.9829 15.06404885 75917
STARLINK-1630           
1 46132U 20057R   21357.47935295 -.00000852  00000+0 -38328-4 0  9996
2 46132  53.0560  17.4289 0001479  68.7717 291.3430 15.06398162 75639
